ONEWEB-0291             
1 49081U 21075G   26187.52699948  .00000031  00000+0  47398-4 0  9991
2 49081  87.9137   2.0144 0002216  87.5424 272.5961 13.17646607236151
ONEWEB-0293             
1 49082U 21075H   26187.47637545  .00000089  00000+0  19723-3 0  9994
2 49082  87.9138   2.0275 0002014  92.9147 267.2214 13.17649806236174
ONEWEB-0294             
1 49083U 21075J   26187.84719971 -.00000295  00000+0 -85636-3 0  9997
2 49083  87.8962 346.7497 0002126  99.3106 260.8263 13.12442069237152
ONEWEB-0295             
1 49084U 21075K   26187.55147360  .00000017  00000+0  10071-4 0  9995
2 49084  87.9137   2.0165 0002114  84.4911 275.6462 13.17649766236149
ONEWEB-0296             
1 49085U 21075L   26187.44569139  .00000264  00000+0  69901-3 0  9995
2 49085  87.8966 346.8374 0002111  87.9616 272.1755 13.12442031237102
ONEWEB-0297             
1 49086U 21075M   26187.47617615 -.00000405  00000+0 -11601-2 0  9994
2 49086  87.8951 346.8398 0001890  90.9773 269.1572 13.12442381237712
ONEWEB-0298             
1 49087U 21075N   26187.47990607  .00000060  00000+0  12129-3 0  9992
2 49087  87.9138   2.0290 0001788  87.6834 272.4503 13.17648658236169
ONEWEB-0299             
1 49088U 21075P   26187.48143217  .00000068  00000+0  14153-3 0  9998
2 49088  87.9148   2.0106 0001927  85.5783 274.5568 13.17647593236141
ONEWEB-0300             
1 49089U 21075Q   26187.84973714 -.00000350  00000+0 -10087-2 0  9999
2 49089  87.8963 346.7468 0001508  87.2324 272.8977 13.12441974237786
ONEWEB-0301             
1 49090U 21075R   26187.83364699  .00000130  00000+0  32580-3 0  9993
2 49090  87.8961 346.7479 0001491  92.9390 267.1909 13.12442028237148
ONEWEB-0302             
1 49091U 21075S   26187.74385947  .00000399  00000+0  10739-2 0  9991
2 49091  87.8963 346.7784 0002106  95.7775 264.3594 13.12442389237118
ONEWEB-0304             
1 49092U 21075T   26187.75986218 -.00000179  00000+0 -49378-3 0  9991
2 49092  87.9137   1.9760 0001967  86.9424 273.1933 13.17648967236157
ONEWEB-0305             
1 49093U 21075U   26187.75311462  .00000037  00000+0  61370-4 0  9993
2 49093  87.9144   1.9632 0002072  80.9569 279.1797 13.17649951236187
ONEWEB-0308             
1 49094U 21075V   26187.73708219  .00000456  00000+0  12321-2 0  9997
2 49094  87.8961 346.7716 0001925  96.5765 263.5583 13.12442194237124
ONEWEB-0309             
1 49095U 21075W   26187.75649714  .00000096  00000+0  21282-3 0  9991
2 49095  87.9137   1.9694 0002337  96.5804 263.5594 13.17649820236152
ONEWEB-0310             
1 49096U 21075X   26187.52361898  .00000218  00000+0  56991-3 0  9992
2 49096  87.8953 346.8337 0001842  94.5158 265.6181 13.12441769237729
