{"fetched_at":"2026-07-07T07:58:10.717Z","source":"https://celestrak.org/NORAD/elements/gp.php?GROUP=oneweb&FORMAT=JSON","constellation":"oneweb","records":[{"OBJECT_NAME":"ONEWEB-0291","OBJECT_ID":"2021-075G","EPOCH":"2026-07-06T12:38:52.755072","CLASSIFICATION_TYPE":"U","MEAN_MOTION":13.17646607,"ECCENTRICITY":0.0002216,"INCLINATION":87.9137,"RA_OF_ASC_NODE":2.0144,"ARG_OF_PERICENTER":87.5424,"MEAN_ANOMALY":272.5961,"EPHEMERIS_TYPE":0,"NORAD_CAT_ID":49081,"ELEMENT_SET_NO":999,"REV_AT_EPOCH":23615,"BSTAR":0.000047398,"MEAN_MOTION_DOT":3.1e-7,"MEAN_MOTION_DDOT":0},{"OBJECT_NAME":"ONEWEB-0293","OBJECT_ID":"2021-075H","EPOCH":"2026-07-06T11:25:58.838880","CLASSIFICATION_TYPE":"U","MEAN_MOTION":13.17649806,"ECCENTRICITY":0.0002014,"INCLINATION":87.9138,"RA_OF_ASC_NODE":2.0275,"ARG_OF_PERICENTER":92.9147,"MEAN_ANOMALY":267.2214,"EPHEMERIS_TYPE":0,"NORAD_CAT_ID":49082,"ELEMENT_SET_NO":999,"REV_AT_EPOCH":23617,"BSTAR":0.00019723,"MEAN_MOTION_DOT":8.9e-7,"MEAN_MOTION_DDOT":0},{"OBJECT_NAME":"ONEWEB-0294","OBJECT_ID":"2021-075J","EPOCH":"2026-07-06T20:19:58.054944","CLASSIFICATION_TYPE":"U","MEAN_MOTION":13.12442069,"ECCENTRICITY":0.0002126,"INCLINATION":87.8962,"RA_OF_ASC_NODE":346.7497,"ARG_OF_PERICENTER":99.3106,"MEAN_ANOMALY":260.8263,"EPHEMERIS_TYPE":0,"NORAD_CAT_ID":49083,"ELEMENT_SET_NO":999,"REV_AT_EPOCH":23715,"BSTAR":-0.00085636,"MEAN_MOTION_DOT":-0.00000295,"MEAN_MOTION_DDOT":0},{"OBJECT_NAME":"ONEWEB-0295","OBJECT_ID":"2021-075K","EPOCH":"2026-07-06T13:14:07.319040","CLASSIFICATION_TYPE":"U","MEAN_MOTION":13.17649766,"ECCENTRICITY":0.0002114,"INCLINATION":87.9137,"RA_OF_ASC_NODE":2.0165,"ARG_OF_PERICENTER":84.4911,"MEAN_ANOMALY":275.6462,"EPHEMERIS_TYPE":0,"NORAD_CAT_ID":49084,"ELEMENT_SET_NO":999,"REV_AT_EPOCH":23614,"BSTAR":0.000010071,"MEAN_MOTION_DOT":1.7e-7,"MEAN_MOTION_DDOT":0},{"OBJECT_NAME":"ONEWEB-0296","OBJECT_ID":"2021-075L","EPOCH":"2026-07-06T10:41:47.736096","CLASSIFICATION_TYPE":"U","MEAN_MOTION":13.12442031,"ECCENTRICITY":0.0002111,"INCLINATION":87.8966,"RA_OF_ASC_NODE":346.8374,"ARG_OF_PERICENTER":87.9616,"MEAN_ANOMALY":272.1755,"EPHEMERIS_TYPE":0,"NORAD_CAT_ID":49085,"ELEMENT_SET_NO":999,"REV_AT_EPOCH":23710,"BSTAR":0.00069901,"MEAN_MOTION_DOT":0.00000264,"MEAN_MOTION_DDOT":0},{"OBJECT_NAME":"ONEWEB-0297","OBJECT_ID":"2021-075M","EPOCH":"2026-07-06T11:25:41.619360","CLASSIFICATION_TYPE":"U","MEAN_MOTION":13.12442381,"ECCENTRICITY":0.000189,"INCLINATION":87.8951,"RA_OF_ASC_NODE":346.8398,"ARG_OF_PERICENTER":90.9773,"MEAN_ANOMALY":269.1572,"EPHEMERIS_TYPE":0,"NORAD_CAT_ID":49086,"ELEMENT_SET_NO":999,"REV_AT_EPOCH":23771,"BSTAR":-0.0011601,"MEAN_MOTION_DOT":-0.00000405,"MEAN_MOTION_DDOT":0},{"OBJECT_NAME":"ONEWEB-0298","OBJECT_ID":"2021-075N","EPOCH":"2026-07-06T11:31:03.884448","CLASSIFICATION_TYPE":"U","MEAN_MOTION":13.17648658,"ECCENTRICITY":0.00017889,"INCLINATION":87.9138,"RA_OF_ASC_NODE":2.029,"ARG_OF_PERICENTER":87.6834,"MEAN_ANOMALY":272.4503,"EPHEMERIS_TYPE":0,"NORAD_CAT_ID":49087,"ELEMENT_SET_NO":999,"REV_AT_EPOCH":23616,"BSTAR":0.00012129219,"MEAN_MOTION_DOT":6e-7,"MEAN_MOTION_DDOT":0},{"OBJECT_NAME":"ONEWEB-0299","OBJECT_ID":"2021-075P","EPOCH":"2026-07-06T11:33:15.739488","CLASSIFICATION_TYPE":"U","MEAN_MOTION":13.17647593,"ECCENTRICITY":0.00019272,"INCLINATION":87.9148,"RA_OF_ASC_NODE":2.0106,"ARG_OF_PERICENTER":85.5783,"MEAN_ANOMALY":274.5568,"EPHEMERIS_TYPE":0,"NORAD_CAT_ID":49088,"ELEMENT_SET_NO":999,"REV_AT_EPOCH":23614,"BSTAR":0.00014152585,"MEAN_MOTION_DOT":6.8e-7,"MEAN_MOTION_DDOT":0},{"OBJECT_NAME":"ONEWEB-0300","OBJECT_ID":"2021-075Q","EPOCH":"2026-07-06T20:23:37.288896","CLASSIFICATION_TYPE":"U","MEAN_MOTION":13.12441974,"ECCENTRICITY":0.0001508,"INCLINATION":87.8963,"RA_OF_ASC_NODE":346.7468,"ARG_OF_PERICENTER":87.2324,"MEAN_ANOMALY":272.8977,"EPHEMERIS_TYPE":0,"NORAD_CAT_ID":49089,"ELEMENT_SET_NO":999,"REV_AT_EPOCH":23778,"BSTAR":-0.0010087,"MEAN_MOTION_DOT":-0.0000035,"MEAN_MOTION_DDOT":0},{"OBJECT_NAME":"ONEWEB-0301","OBJECT_ID":"2021-075R","EPOCH":"2026-07-06T20:00:27.099936","CLASSIFICATION_TYPE":"U","MEAN_MOTION":13.12442028,"ECCENTRICITY":0.0001491,"INCLINATION":87.8961,"RA_OF_ASC_NODE":346.7479,"ARG_OF_PERICENTER":92.939,"MEAN_ANOMALY":267.1909,"EPHEMERIS_TYPE":0,"NORAD_CAT_ID":49090,"ELEMENT_SET_NO":999,"REV_AT_EPOCH":23714,"BSTAR":0.0003258,"MEAN_MOTION_DOT":0.0000013,"MEAN_MOTION_DDOT":0},{"OBJECT_NAME":"ONEWEB-0302","OBJECT_ID":"2021-075S","EPOCH":"2026-07-06T17:51:09.458208","CLASSIFICATION_TYPE":"U","MEAN_MOTION":13.12442389,"ECCENTRICITY":0.0002106,"INCLINATION":87.8963,"RA_OF_ASC_NODE":346.7784,"ARG_OF_PERICENTER":95.7775,"MEAN_ANOMALY":264.3594,"EPHEMERIS_TYPE":0,"NORAD_CAT_ID":49091,"ELEMENT_SET_NO":999,"REV_AT_EPOCH":23711,"BSTAR":0.0010739,"MEAN_MOTION_DOT":0.00000399,"MEAN_MOTION_DDOT":0},{"OBJECT_NAME":"ONEWEB-0304","OBJECT_ID":"2021-075T","EPOCH":"2026-07-06T18:14:12.092352","CLASSIFICATION_TYPE":"U","MEAN_MOTION":13.17648967,"ECCENTRICITY":0.0001967,"INCLINATION":87.9137,"RA_OF_ASC_NODE":1.976,"ARG_OF_PERICENTER":86.9424,"MEAN_ANOMALY":273.1933,"EPHEMERIS_TYPE":0,"NORAD_CAT_ID":49092,"ELEMENT_SET_NO":999,"REV_AT_EPOCH":23615,"BSTAR":-0.00049378,"MEAN_MOTION_DOT":-0.00000179,"MEAN_MOTION_DDOT":0},{"OBJECT_NAME":"ONEWEB-0305","OBJECT_ID":"2021-075U","EPOCH":"2026-07-06T18:04:29.103168","CLASSIFICATION_TYPE":"U","MEAN_MOTION":13.17649951,"ECCENTRICITY":0.0002072,"INCLINATION":87.9144,"RA_OF_ASC_NODE":1.9632,"ARG_OF_PERICENTER":80.9569,"MEAN_ANOMALY":279.1797,"EPHEMERIS_TYPE":0,"NORAD_CAT_ID":49093,"ELEMENT_SET_NO":999,"REV_AT_EPOCH":23618,"BSTAR":0.00006137,"MEAN_MOTION_DOT":3.7e-7,"MEAN_MOTION_DDOT":0},{"OBJECT_NAME":"ONEWEB-0308","OBJECT_ID":"2021-075V","EPOCH":"2026-07-06T17:41:23.901216","CLASSIFICATION_TYPE":"U","MEAN_MOTION":13.12442194,"ECCENTRICITY":0.0001925,"INCLINATION":87.8961,"RA_OF_ASC_NODE":346.7716,"ARG_OF_PERICENTER":96.5765,"MEAN_ANOMALY":263.5583,"EPHEMERIS_TYPE":0,"NORAD_CAT_ID":49094,"ELEMENT_SET_NO":999,"REV_AT_EPOCH":23712,"BSTAR":0.0012321,"MEAN_MOTION_DOT":0.00000456,"MEAN_MOTION_DDOT":0},{"OBJECT_NAME":"ONEWEB-0309","OBJECT_ID":"2021-075W","EPOCH":"2026-07-06T18:09:21.352896","CLASSIFICATION_TYPE":"U","MEAN_MOTION":13.1764982,"ECCENTRICITY":0.0002337,"INCLINATION":87.9137,"RA_OF_ASC_NODE":1.9694,"ARG_OF_PERICENTER":96.5804,"MEAN_ANOMALY":263.5594,"EPHEMERIS_TYPE":0,"NORAD_CAT_ID":49095,"ELEMENT_SET_NO":999,"REV_AT_EPOCH":23615,"BSTAR":0.00021282,"MEAN_MOTION_DOT":9.6e-7,"MEAN_MOTION_DDOT":0},{"OBJECT_NAME":"ONEWEB-0310","OBJECT_ID":"2021-075X","EPOCH":"2026-07-06T12:34:00.679872","CLASSIFICATION_TYPE":"U","MEAN_MOTION":13.12441769,"ECCENTRICITY":0.0001842,"INCLINATION":87.8953,"RA_OF_ASC_NODE":346.8337,"ARG_OF_PERICENTER":94.5158,"MEAN_ANOMALY":265.6181,"EPHEMERIS_TYPE":0,"NORAD_CAT_ID":49096,"ELEMENT_SET_NO":999,"REV_AT_EPOCH":23772,"BSTAR":0.00056991,"MEAN_MOTION_DOT":0.00000218,"MEAN_MOTION_DDOT":0}]}
